0 FENGYUN 1C DEB
1 30556U 99025AKW 13281.37411141  .00000359  00000-0  28276-3 0  1381
2 30556 099.1869 327.9188 0063789 293.2837 198.6915 13.97555784340693
0 FENGYUN 1C DEB
1 30556U 99025AKW 13284.08161530  .00000255  00000-0  20964-3 0  1398
2 30556 099.1867 330.6263 0063942 285.7189 140.8547 13.97559897341075
0 FENGYUN 1C DEB
1 30556U 99025AKW 13286.79931603  .00000162  00000-0  14519-3 0  1402
2 30556 099.1859 333.3444 0064092 278.1318 134.3477 13.97562041341451
0 FENGYUN 1C DEB
1 30556U 99025AKW 13288.80356911  .00000167  00000-0  14865-3 0  1419
2 30556 099.1851 335.3488 0064208 272.5448 138.2984 13.97563880341733
0 FENGYUN 1C DEB
1 30556U 99025AKW 13291.09012399  .00000108  00000-0  10684-3 0  1424
2 30556 099.1844 337.6352 0064339 266.1838 122.5877 13.97565069342051
0 FENGYUN 1C DEB
1 30556U 99025AKW 13293.10171244  .00000188  00000-0  16273-3 0  1432
2 30556 099.1841 339.6463 0064453 260.5961 163.4483 13.97566033342335
0 FENGYUN 1C DEB
1 30556U 99025AKW 13295.10421874  .00000263  00000-0  21535-3 0  1443
2 30556 099.1840 341.6482 0064516 255.0459 158.6117 13.97567469342614
